{
  "type": "FeatureCollection",
  "features": [
    {
      "type": "Feature",
      "properties": {
        "norad_id": 29486,
        "name": "GPS BIIRM-2 (PRN 31)",
        "group": "gps-ops",
        "lat": -26.91654346305152,
        "lon": 137.16155089114062,
        "alt_km": 20163.248353778654,
        "timestamp": "2025-12-24T22:42:22.289696+00:00",
        "meta_object_name": "GPS BIIRM-2 (PRN 31)",
        "meta_object_id": "2006-042A",
        "meta_epoch": "2025-12-23T12:09:08.290944",
        "meta_mean_motion": 2.00553717,
        "meta_eccentricity": 0.01072791,
        "meta_inclination": 54.6953,
        "meta_ra_of_asc_node": 158.3137,
        "meta_arg_of_pericenter": 52.2028,
        "meta_mean_anomaly": 315.7837,
        "meta_ephemeris_type": 0,
        "meta_classification_type": "U",
        "meta_norad_cat_id": 29486,
        "meta_element_set_no": 999,
        "meta_rev_at_epoch": 14087,
        "meta_bstar": 0,
        "meta_mean_motion_dot": 8.4e-07,
        "meta_mean_motion_ddot": 0,
        "tle_line1": "1 29486U 06042A   25357.50634596  .00000084  00000+0  00000+0 0  9991",
        "tle_line2": "2 29486  54.6953 158.3137 0107279  52.2028 315.7837  2.00553717140870"
      },
      "geometry": {
        "type": "Point",
        "coordinates": [
          137.16155089114062,
          -26.91654346305152
        ]
      }
    },
    {
      "type": "Feature",
      "properties": {
        "norad_id": 29601,
        "name": "GPS BIIRM-3 (PRN 12)",
        "group": "gps-ops",
        "lat": 20.29936649670497,
        "lon": -124.03666644268998,
        "alt_km": 20069.21952064591,
        "timestamp": "2025-12-24T22:42:22.289708+00:00",
        "meta_object_name": "GPS BIIRM-3 (PRN 12)",
        "meta_object_id": "2006-052A",
        "meta_epoch": "2025-12-22T22:00:58.169952",
        "meta_mean_motion": 2.00574295,
        "meta_eccentricity": 0.0087996,
        "meta_inclination": 54.9685,
        "meta_ra_of_asc_node": 220.9942,
        "meta_arg_of_pericenter": 87.562,
        "meta_mean_anomaly": 273.5353,
        "meta_ephemeris_type": 0,
        "meta_classification_type": "U",
        "meta_norad_cat_id": 29601,
        "meta_element_set_no": 999,
        "meta_rev_at_epoch": 13987,
        "meta_bstar": 0,
        "meta_mean_motion_dot": 6.8e-07,
        "meta_mean_motion_ddot": 0,
        "tle_line1": "1 29601U 06052A   25356.91733993  .00000068  00000+0  00000+0 0  9998",
        "tle_line2": "2 29601  54.9685 220.9942 0087996  87.5620 273.5353  2.00574295139872"
      },
      "geometry": {
        "type": "Point",
        "coordinates": [
          -124.03666644268998,
          20.29936649670497
        ]
      }
    },
    {
      "type": "Feature",
      "properties": {
        "norad_id": 32260,
        "name": "GPS BIIRM-4 (PRN 15)",
        "group": "gps-ops",
        "lat": 10.087116022603789,
        "lon": -100.16720707794073,
        "alt_km": 20114.38405845702,
        "timestamp": "2025-12-24T22:42:22.289720+00:00",
        "meta_object_name": "GPS BIIRM-4 (PRN 15)",
        "meta_object_id": "2007-047A",
        "meta_epoch": "2025-12-23T05:22:00.882048",
        "meta_mean_motion": 2.00564099,
        "meta_eccentricity": 0.01640403,
        "meta_inclination": 53.9621,
        "meta_ra_of_asc_node": 87.3254,
        "meta_arg_of_pericenter": 85.3777,
        "meta_mean_anomaly": 276.5133,
        "meta_ephemeris_type": 0,
        "meta_classification_type": "U",
        "meta_norad_cat_id": 32260,
        "meta_element_set_no": 999,
        "meta_rev_at_epoch": 13328,
        "meta_bstar": 0,
        "meta_mean_motion_dot": -6e-08,
        "meta_mean_motion_ddot": 0,
        "tle_line1": "1 32260U 07047A   25357.22362132 -.00000006  00000+0  00000+0 0  9999",
        "tle_line2": "2 32260  53.9621  87.3254 0164040  85.3777 276.5133  2.00564099133281"
      },
      "geometry": {
        "type": "Point",
        "coordinates": [
          -100.16720707794073,
          10.087116022603789
        ]
      }
    },
    {
      "type": "Feature",
      "properties": {
        "norad_id": 32384,
        "name": "GPS BIIRM-5 (PRN 29)",
        "group": "gps-ops",
        "lat": -48.088319255619226,
        "lon": -129.6148596399101,
        "alt_km": 20245.232536285595,
        "timestamp": "2025-12-24T22:42:22.289731+00:00",
        "meta_object_name": "GPS BIIRM-5 (PRN 29)",
        "meta_object_id": "2007-062A",
        "meta_epoch": "2025-12-24T04:33:25.319232",
        "meta_mean_motion": 2.00549289,
        "meta_eccentricity": 0.00313762,
        "meta_inclination": 55.1723,
        "meta_ra_of_asc_node": 281.1867,
        "meta_arg_of_pericenter": 162.3601,
        "meta_mean_anomaly": 306.4071,
        "meta_ephemeris_type": 0,
        "meta_classification_type": "U",
        "meta_norad_cat_id": 32384,
        "meta_element_set_no": 999,
        "meta_rev_at_epoch": 13200,
        "meta_bstar": 0,
        "meta_mean_motion_dot": -2.2e-07,
        "meta_mean_motion_ddot": 0,
        "tle_line1": "1 32384U 07062A   25358.18987638 -.00000022  00000+0  00000+0 0  9991",
        "tle_line2": "2 32384  55.1723 281.1867 0031376 162.3601 306.4071  2.00549289132003"
      },
      "geometry": {
        "type": "Point",
        "coordinates": [
          -129.6148596399101,
          -48.088319255619226
        ]
      }
    },
    {
      "type": "Feature",
      "properties": {
        "norad_id": 32711,
        "name": "GPS BIIRM-6 (PRN 07)",
        "group": "gps-ops",
        "lat": -30.272129670187358,
        "lon": 1.518952393703067,
        "alt_km": 19703.1022515208,
        "timestamp": "2025-12-24T22:42:22.289742+00:00",
        "meta_object_name": "GPS BIIRM-6 (PRN 07)",
        "meta_object_id": "2008-012A",
        "meta_epoch": "2025-12-23T15:24:58.036896",
        "meta_mean_motion": 2.00566087,
        "meta_eccentricity": 0.0202929,
        "meta_inclination": 54.4783,
        "meta_ra_of_asc_node": 156.9378,
        "meta_arg_of_pericenter": 245.0761,
        "meta_mean_anomaly": 112.7872,
        "meta_ephemeris_type": 0,
        "meta_classification_type": "U",
        "meta_norad_cat_id": 32711,
        "meta_element_set_no": 999,
        "meta_rev_at_epoch": 13023,
        "meta_bstar": 0,
        "meta_mean_motion_dot": 8.4e-07,
        "meta_mean_motion_ddot": 0,
        "tle_line1": "1 32711U 08012A   25357.64233839  .00000084  00000+0  00000+0 0  9995",
        "tle_line2": "2 32711  54.4783 156.9378 0202929 245.0761 112.7872  2.00566087130236"
      },
      "geometry": {
        "type": "Point",
        "coordinates": [
          1.518952393703067,
          -30.272129670187358
        ]
      }
    },
    {
      "type": "Feature",
      "properties": {
        "norad_id": 35752,
        "name": "GPS BIIRM-8 (PRN 05)",
        "group": "gps-ops",
        "lat": -45.548836950613264,
        "lon": -102.43425115692575,
        "alt_km": 20314.130276256565,
        "timestamp": "2025-12-24T22:42:22.289754+00:00",
        "meta_object_name": "GPS BIIRM-8 (PRN 05)",
        "meta_object_id": "2009-043A",
        "meta_epoch": "2025-12-24T04:14:37.985856",
        "meta_mean_motion": 2.00564964,
        "meta_eccentricity": 0.00515883,
        "meta_inclination": 56.0988,
        "meta_ra_of_asc_node": 34.3322,
        "meta_arg_of_pericenter": 81.7352,
        "meta_mean_anomaly": 321.9432,
        "meta_ephemeris_type": 0,
        "meta_classification_type": "U",
        "meta_norad_cat_id": 35752,
        "meta_element_set_no": 999,
        "meta_rev_at_epoch": 11985,
        "meta_bstar": 0,
        "meta_mean_motion_dot": -5.1e-07,
        "meta_mean_motion_ddot": 0,
        "tle_line1": "1 35752U 09043A   25358.17682854 -.00000051  00000+0  00000+0 0  9997",
        "tle_line2": "2 35752  56.0988  34.3322 0051588  81.7352 321.9432  2.00564964119854"
      },
      "geometry": {
        "type": "Point",
        "coordinates": [
          -102.43425115692575,
          -45.548836950613264
        ]
      }
    },
    {
      "type": "Feature",
      "properties": {
        "norad_id": 36585,
        "name": "GPS BIIF-1  (PRN 25)",
        "group": "gps-ops",
        "lat": -3.51776311077007,
        "lon": -146.93973888984343,
        "alt_km": 20062.395625854417,
        "timestamp": "2025-12-24T22:42:22.289765+00:00",
        "meta_object_name": "GPS BIIF-1  (PRN 25)",
        "meta_object_id": "2010-022A",
        "meta_epoch": "2025-12-24T05:28:23.943360",
        "meta_mean_motion": 2.00553772,
        "meta_eccentricity": 0.01265509,
        "meta_inclination": 54.2984,
        "meta_ra_of_asc_node": 215.6106,
        "meta_arg_of_pericenter": 65.2201,
        "meta_mean_anomaly": 133.4406,
        "meta_ephemeris_type": 0,
        "meta_classification_type": "U",
        "meta_norad_cat_id": 36585,
        "meta_element_set_no": 999,
        "meta_rev_at_epoch": 11408,
        "meta_bstar": 0,
        "meta_mean_motion_dot": 7.3e-07,
        "meta_mean_motion_ddot": 0,
        "tle_line1": "1 36585U 10022A   25358.22805490  .00000073  00000+0  00000+0 0  9993",
        "tle_line2": "2 36585  54.2984 215.6106 0126550  65.2201 133.4406  2.00553772114083"
      },
      "geometry": {
        "type": "Point",
        "coordinates": [
          -146.93973888984343,
          -3.51776311077007
        ]
      }
    }
  ]
}